{
"type": "FeatureCollection",
"name": "BLM_Districts",
"crs": { "type": "name", "properties": { "name": "urn:ogc:def:crs:OGC:1.3:CRS84" } },
"features": [
{ "type": "Feature", "properties": { "ADM_UNIT_CD": "NM000000", "ADMU_NAME": "NEW MEXICO STATE OFFICE", "BLM_ORG_TYPE": "State", "ADMIN_ST": "NM", "Label": "New Mexico", "Label_Full_Name": "New Mexico", "City_Label": "", "OBJECTID": 1 }, "geometry": { "type": "Point", "coordinates": [ -106.037929279795591, 35.598029517674483 ] } },
{ "type": "Feature", "properties": { "ADM_UNIT_CD": "NVW01000", "ADMU_NAME": "Humboldt River", "BLM_ORG_TYPE": "Field", "ADMIN_ST": "NV", "Label": "Humboldt River", "Label_Full_Name": "Humboldt River Field Office", "City_Label": "", "OBJECTID": 2 }, "geometry": { "type": "Point", "coordinates": [ -117.713713757768943, 40.976760979012766 ] } },
{ "type": "Feature", "properties": { "ADM_UNIT_CD": "ORL00000", "ADMU_NAME": "LAKEVIEW DISTRICT OFFICE", "BLM_ORG_TYPE": "District", "ADMIN_ST": "OR", "Label": "Lakeview", "Label_Full_Name": "Lakeview District Office", "City_Label": "", "OBJECTID": 3 }, "geometry": { "type": "Point", "coordinates": [ -120.346538761831113, 42.170922173952782 ] } },
{ "type": "Feature", "properties": { "ADM_UNIT_CD": "CAC09000", "ADMU_NAME": "Central Coast Field Office", "BLM_ORG_TYPE": "Field", "ADMIN_ST": "CA", "Label": "Central Coast", "Label_Full_Name": "Central Coast Field Office", "City_Label": "", "OBJECTID": 4 }, "geometry": { "type": "Point", "coordinates": [ -121.807677722680808, 36.667994647538976 ] } },
{ "type": "Feature", "properties": { "ADM_UNIT_CD": "IDI04000", "ADMU_NAME": "Salmon Field Office", "BLM_ORG_TYPE": "Field", "ADMIN_ST": "ID", "Label": "Salmon", "Label_Full_Name": "Salmon Field Office", "City_Label": "", "OBJECTID": 5 }, "geometry": { "type": "Point", "coordinates": [ -113.892205643884324, 45.159954542396328 ] } },
{ "type": "Feature", "properties": { "ADM_UNIT_CD": "ORW00000", "ADMU_NAME": "SPOKANE DISTRICT OFFICE", "BLM_ORG_TYPE": "District", "ADMIN_ST": "OR", "Label": "Spokane", "Label_Full_Name": "Spokane District Office", "City_Label": "", "OBJECTID": 6 }, "geometry": { "type": "Point", "coordinates": [ -117.325488404849779, 47.667924536110839 ] } },
{ "type": "Feature", "properties": { "ADM_UNIT_CD": "ORN04000", "ADMU_NAME": "NW OREGON TILLAMOOK FIELD OFFICE", "BLM_ORG_TYPE": "Field", "ADMIN_ST": "OR", "Label": "Nw Oregon Tillamook", "Label_Full_Name": "Nw Oregon Tillamook Field Office", "City_Label": "", "OBJECTID": 7 }, "geometry": { "type": "Point", "coordinates": [ -123.815290998733488, 45.456917987602878 ] } },
{ "type": "Feature", "properties": { "ADM_UNIT_CD": "NVL03000", "ADMU_NAME": "Caliente", "BLM_ORG_TYPE": "Field", "ADMIN_ST": "NV", "Label": "Caliente", "Label_Full_Name": "Caliente Field Office", "City_Label": "", "OBJECTID": 8 }, "geometry": { "type": "Point", "coordinates": [ -114.527824772176928, 37.611093374529041 ] } },
{ "type": "Feature", "properties": { "ADM_UNIT_CD": "CAN03000", "ADMU_NAME": "Arcata Field Office", "BLM_ORG_TYPE": "Field", "ADMIN_ST": "CA", "Label": "Arcata", "Label_Full_Name": "Arcata Field Office", "City_Label": "", "OBJECTID": 9 }, "geometry": { "type": "Point", "coordinates": [ -124.087902829633407, 40.903173474810764 ] } },
{ "type": "Feature", "properties": { "ADM_UNIT_CD": "AK000000", "ADMU_NAME": "Alaska State Office", "BLM_ORG_TYPE": "State", "ADMIN_ST": "AK", "Label": "Alaska", "Label_Full_Name": "Alaska", "City_Label": "", "OBJECTID": 10 }, "geometry": { "type": "Point", "coordinates": [ -149.885260661003599, 61.215173608940304 ] } },
{ "type": "Feature", "properties": { "ADM_UNIT_CD": "CAC08000", "ADMU_NAME": "Mother Lode Field Office", "BLM_ORG_TYPE": "Field", "ADMIN_ST": "CA", "Label": "Motherlode", "Label_Full_Name": "Motherlode Field Office", "City_Label": "", "OBJECTID": 11 }, "geometry": { "type": "Point", "coordinates": [ -121.060735626490199, 38.620425012583169 ] } },
{ "type": "Feature", "properties": { "ADM_UNIT_CD": "UTP01000", "ADMU_NAME": "ANASAZI STATE PARK", "BLM_ORG_TYPE": "Other", "ADMIN_ST": "UT", "Label": "Grand Staircase Escalante Nat'l Mon", "Label_Full_Name": "Grand Staircase Escalante Nat'l Mon", "City_Label": "", "OBJECTID": 12 }, "geometry": { "type": "Point", "coordinates": [ -111.423617901147296, 37.910876970846779 ] } },
{ "type": "Feature", "properties": { "ADM_UNIT_CD": "CAC07000", "ADMU_NAME": "Bishop Field Office", "BLM_ORG_TYPE": "Field", "ADMIN_ST": "CA", "Label": "Bishop", "Label_Full_Name": "Bishop Field Office", "City_Label": "", "OBJECTID": 13 }, "geometry": { "type": "Point", "coordinates": [ -118.410863004922092, 37.362646905446724 ] } },
{ "type": "Feature", "properties": { "ADM_UNIT_CD": "UTP02000", "ADMU_NAME": "KANAB FIELD OFFICE", "BLM_ORG_TYPE": "Field", "ADMIN_ST": "UT", "Label": "Kanab", "Label_Full_Name": "Kanab Field Office", "City_Label": "", "OBJECTID": 14 }, "geometry": { "type": "Point", "coordinates": [ -112.524210264864834, 37.037018035937329 ] } },
{ "type": "Feature", "properties": { "ADM_UNIT_CD": "MTC04000", "ADMU_NAME": "SOUTH DAKOTA FIELD OFFICE", "BLM_ORG_TYPE": "Field", "ADMIN_ST": "MT", "Label": "South Dakota", "Label_Full_Name": "South Dakota Field Office", "City_Label": "", "OBJECTID": 15 }, "geometry": { "type": "Point", "coordinates": [ -103.859790593819412, 44.682468221112174 ] } },
{ "type": "Feature", "properties": { "ADM_UNIT_CD": "NVB01000", "ADMU_NAME": "Mount Lewis", "BLM_ORG_TYPE": "Field", "ADMIN_ST": "NV", "Label": "Mount Lewis", "Label_Full_Name": "Mount Lewis Field Office", "City_Label": "", "OBJECTID": 16 }, "geometry": { "type": "Point", "coordinates": [ -116.95532214190375, 40.630538596236498 ] } },
{ "type": "Feature", "properties": { "ADM_UNIT_CD": "WYD09000", "ADMU_NAME": "KEMMERER FIELD OFFICE", "BLM_ORG_TYPE": "Field", "ADMIN_ST": "WY", "Label": "Kemmerer", "Label_Full_Name": "Kemmerer Field Office", "City_Label": "", "OBJECTID": 17 }, "geometry": { "type": "Point", "coordinates": [ -110.533600764938967, 41.812517454874595 ] } },
{ "type": "Feature", "properties": { "ADM_UNIT_CD": "CAC06000", "ADMU_NAME": "Bakersfield Field Office", "BLM_ORG_TYPE": "Field", "ADMIN_ST": "CA", "Label": "Bakersfield", "Label_Full_Name": "Bakersfield Field Office", "City_Label": "", "OBJECTID": 18 }, "geometry": { "type": "Point", "coordinates": [ -119.07548369598679, 35.444255354305838 ] } },
{ "type": "Feature", "properties": { "ADM_UNIT_CD": "NML00000", "ADMU_NAME": "LAS CRUCES DISTRICT OFFICE", "BLM_ORG_TYPE": "District", "ADMIN_ST": "NM", "Label": "Las Cruces", "Label_Full_Name": "Las Cruces District Office", "City_Label": "", "OBJECTID": 19 }, "geometry": { "type": "Point", "coordinates": [ -106.777738656510564, 32.28797839584719 ] } },
{ "type": "Feature", "properties": { "ADM_UNIT_CD": "MTC00000", "ADMU_NAME": "EASTERN MONTANA/DAKS DISTRICT OFFICE", "BLM_ORG_TYPE": "District", "ADMIN_ST": "MT", "Label": "Eastern Montana/daks", "Label_Full_Name": "Eastern Montana/daks District Office", "City_Label": "", "OBJECTID": 20 }, "geometry": { "type": "Point", "coordinates": [ -105.864374127303236, 46.397868237732183 ] } },
{ "type": "Feature", "properties": { "ADM_UNIT_CD": "UTP02000", "ADMU_NAME": "KANAB VISITOR CENTER", "BLM_ORG_TYPE": "Other", "ADMIN_ST": "UT", "Label": "Kanab", "Label_Full_Name": "Kanab Field Office", "City_Label": "", "OBJECTID": 21 }, "geometry": { "type": "Point", "coordinates": [ -112.512107119311437, 37.042479256800952 ] } },
{ "type": "Feature", "properties": { "ADM_UNIT_CD": "AKF02000", "ADMU_NAME": "Eastern Interior Field Office", "BLM_ORG_TYPE": "Field", "ADMIN_ST": "AK", "Label": "Eastern Interior", "Label_Full_Name": "Eastern Interior Field Office", "City_Label": "", "OBJECTID": 22 }, "geometry": { "type": "Point", "coordinates": [ -147.814689691288692, 64.840386987606649 ] } },
{ "type": "Feature", "properties": { "ADM_UNIT_CD": "UTW01000", "ADMU_NAME": "SALT LAKE FIELD OFFICE", "BLM_ORG_TYPE": "Field", "ADMIN_ST": "UT", "Label": "Salt Lake", "Label_Full_Name": "Salt Lake Field Office", "City_Label": "", "OBJECTID": 23 }, "geometry": { "type": "Point", "coordinates": [ -112.03687973888583, 40.779098445154105 ] } },
{ "type": "Feature", "properties": { "ADM_UNIT_CD": "MT000000", "ADMU_NAME": "MONTANA STATE OFFICE", "BLM_ORG_TYPE": "State", "ADMIN_ST": "MT", "Label": "Montana/dakota", "Label_Full_Name": "Montana/dakotas, Blm", "City_Label": "", "OBJECTID": 24 }, "geometry": { "type": "Point", "coordinates": [ -108.542125598997998, 45.754584681073709 ] } },
{ "type": "Feature", "properties": { "ADM_UNIT_CD": "CAN02000", "ADMU_NAME": "Applegate Field Office", "BLM_ORG_TYPE": "Field", "ADMIN_ST": "CA", "Label": "Applegate", "Label_Full_Name": "Applegate Field Office", "City_Label": "", "OBJECTID": 25 }, "geometry": { "type": "Point", "coordinates": [ -120.552808382149848, 41.49501601738077 ] } },
{ "type": "Feature", "properties": { "ADM_UNIT_CD": "NMP01400", "ADMU_NAME": "Fort Stanton NCA Station", "BLM_ORG_TYPE": "Field", "ADMIN_ST": "NM", "Label": "Ft Stanton-Snowy River Cave Nca", "Label_Full_Name": "Ft Stanton-Snowy River Cave Nca", "City_Label": "", "OBJECTID": 26 }, "geometry": { "type": "Point", "coordinates": [ -105.526880421283948, 33.495205855467802 ] } },
{ "type": "Feature", "properties": { "ADM_UNIT_CD": "NVS02000", "ADMU_NAME": "Red Rock Visitor Center", "BLM_ORG_TYPE": "Field", "ADMIN_ST": "NV", "Label": "Red Rock/sloan Canyon Nca", "Label_Full_Name": "Red Rock/sloan Canyon Nca Field Offic", "City_Label": "", "OBJECTID": 27 }, "geometry": { "type": "Point", "coordinates": [ -115.427931957234733, 36.135658672219733 ] } },
{ "type": "Feature", "properties": { "ADM_UNIT_CD": "IDT02000", "ADMU_NAME": "Burley Field Office", "BLM_ORG_TYPE": "Field", "ADMIN_ST": "ID", "Label": "Burley", "Label_Full_Name": "Burley Field Office", "City_Label": "", "OBJECTID": 28 }, "geometry": { "type": "Point", "coordinates": [ -113.79147918690812, 42.503399937151023 ] } },
{ "type": "Feature", "properties": { "ADM_UNIT_CD": "NMP02000", "ADMU_NAME": "CARLSBAD FIELD OFFICE", "BLM_ORG_TYPE": "Field", "ADMIN_ST": "NM", "Label": "Carlsbad", "Label_Full_Name": "Carlsbad Field Office", "City_Label": "", "OBJECTID": 29 }, "geometry": { "type": "Point", "coordinates": [ -104.217459776603746, 32.420267065787691 ] } },
{ "type": "Feature", "properties": { "ADM_UNIT_CD": "AZA03000", "ADMU_NAME": "Grand Canyon-Parashant N.M.", "BLM_ORG_TYPE": "Other", "ADMIN_ST": "AZ", "Label": "Grand Canyon/parashant National Monum", "Label_Full_Name": "Grand Canyon/parashant National Monum", "City_Label": "", "OBJECTID": 30 }, "geometry": { "type": "Point", "coordinates": [ -113.57684999906563, 37.08281388951476 ] } },
{ "type": "Feature", "properties": { "ADM_UNIT_CD": "AZA00000", "ADMU_NAME": "Arizona Strip District Office", "BLM_ORG_TYPE": "District", "ADMIN_ST": "AZ", "Label": "Arizona Strip", "Label_Full_Name": "Arizona Strip District Office", "City_Label": "", "OBJECTID": 31 }, "geometry": { "type": "Point", "coordinates": [ -113.576785839591409, 37.082711939622676 ] } },
{ "type": "Feature", "properties": { "ADM_UNIT_CD": "UTC01000", "ADMU_NAME": "CEDAR CITY FIELD OFFICE", "BLM_ORG_TYPE": "Field", "ADMIN_ST": "UT", "Label": "Cedar City", "Label_Full_Name": "Cedar City Field Office", "City_Label": "", "OBJECTID": 32 }, "geometry": { "type": "Point", "coordinates": [ -113.059023578110754, 37.714852617086734 ] } },
{ "type": "Feature", "properties": { "ADM_UNIT_CD": "ORB00000", "ADMU_NAME": "BURNS DISTRICT OFFICE", "BLM_ORG_TYPE": "District", "ADMIN_ST": "OR", "Label": "Burns", "Label_Full_Name": "Burns District Office", "City_Label": "", "OBJECTID": 33 }, "geometry": { "type": "Point", "coordinates": [ -119.096611620515006, 43.523300473214562 ] } },
{ "type": "Feature", "properties": { "ADM_UNIT_CD": "ESM00000", "ADMU_NAME": "NORTHEASTERN STATES DISTRICT OFFICE", "BLM_ORG_TYPE": "District", "ADMIN_ST": "ES", "Label": "Northeastern States", "Label_Full_Name": "Northeastern States District", "City_Label": "", "OBJECTID": 34 }, "geometry": { "type": "Point", "coordinates": [ -87.903067385314287, 43.039016635136704 ] } },
{ "type": "Feature", "properties": { "ADM_UNIT_CD": "ORR04000", "ADMU_NAME": "ROSEBURG SWIFTWATER FIELD OFFICE", "BLM_ORG_TYPE": "Field", "ADMIN_ST": "OR", "Label": "Roseburg District Swiftwater", "Label_Full_Name": "Roseburg District Swiftwater Fo", "City_Label": "", "OBJECTID": 35 }, "geometry": { "type": "Point", "coordinates": [ -123.363993218425662, 43.227615587658541 ] } },
{ "type": "Feature", "properties": { "ADM_UNIT_CD": "WYP06000", "ADMU_NAME": "CASPER FIELD OFFICE", "BLM_ORG_TYPE": "Field", "ADMIN_ST": "WY", "Label": "Casper", "Label_Full_Name": "Casper Field Office", "City_Label": "", "OBJECTID": 36 }, "geometry": { "type": "Point", "coordinates": [ -106.384265404990387, 42.819324684258717 ] } },
{ "type": "Feature", "properties": { "ADM_UNIT_CD": "AKF03000", "ADMU_NAME": "Yukon River Contact Station", "BLM_ORG_TYPE": "Other", "ADMIN_ST": "AK", "Label": "Central Yukon", "Label_Full_Name": "Central Yukon Field Office", "City_Label": "", "OBJECTID": 37 }, "geometry": { "type": "Point", "coordinates": [ -149.714715326447077, 65.879232882658471 ] } },
{ "type": "Feature", "properties": { "ADM_UNIT_CD": "AZ000000", "ADMU_NAME": "Arizona State Office", "BLM_ORG_TYPE": "State", "ADMIN_ST": "AZ", "Label": "Arizona", "Label_Full_Name": "Arizona", "City_Label": "", "OBJECTID": 38 }, "geometry": { "type": "Point", "coordinates": [ -112.073197728405816, 33.448470348450186 ] } },
{ "type": "Feature", "properties": { "ADM_UNIT_CD": "NMF02000", "ADMU_NAME": "TAOS FIELD OFFICE", "BLM_ORG_TYPE": "Field", "ADMIN_ST": "NM", "Label": "Taos", "Label_Full_Name": "Taos Field Office", "City_Label": "", "OBJECTID": 39 }, "geometry": { "type": "Point", "coordinates": [ -105.586879242266733, 36.384982968101575 ] } },
{ "type": "Feature", "properties": { "ADM_UNIT_CD": "NMA01000", "ADMU_NAME": "RIO PUERCO FIELD OFFICE", "BLM_ORG_TYPE": "Field", "ADMIN_ST": "NM", "Label": "Rio Puerco", "Label_Full_Name": "Rio Puerco Field Office", "City_Label": "", "OBJECTID": 40 }, "geometry": { "type": "Point", "coordinates": [ -106.586598042693765, 35.166313913804217 ] } },
{ "type": "Feature", "properties": { "ADM_UNIT_CD": "NMA00000", "ADMU_NAME": "ALBUQUERQUE DISTRICT OFFICE", "BLM_ORG_TYPE": "District", "ADMIN_ST": "NM", "Label": "Albuquerque", "Label_Full_Name": "Albuquerque District Office", "City_Label": "", "OBJECTID": 41 }, "geometry": { "type": "Point", "coordinates": [ -106.586598042693765, 35.166313913804217 ] } },
{ "type": "Feature", "properties": { "ADM_UNIT_CD": "ORV00000", "ADMU_NAME": "VALE DISTRICT OFFICE", "BLM_ORG_TYPE": "District", "ADMIN_ST": "OR", "Label": "Vale", "Label_Full_Name": "Vale District Office", "City_Label": "", "OBJECTID": 42 }, "geometry": { "type": "Point", "coordinates": [ -117.240419587767349, 43.98667035936873 ] } },
{ "type": "Feature", "properties": { "ADM_UNIT_CD": "IDT03000", "ADMU_NAME": "Shoshone Field Office", "BLM_ORG_TYPE": "Field", "ADMIN_ST": "ID", "Label": "Shoshone", "Label_Full_Name": "Shoshone Field Office", "City_Label": "", "OBJECTID": 43 }, "geometry": { "type": "Point", "coordinates": [ -114.413662950114713, 42.932131603491278 ] } },
{ "type": "Feature", "properties": { "ADM_UNIT_CD": "CAD06000", "ADMU_NAME": "Palm Springs/South Coast Field Office", "BLM_ORG_TYPE": "Field", "ADMIN_ST": "CA", "Label": "Palm Springs/s Coast", "Label_Full_Name": "Palm Springs/s Coast Fld Ofc", "City_Label": "", "OBJECTID": 44 }, "geometry": { "type": "Point", "coordinates": [ -116.505266783736161, 33.839939375673069 ] } },
{ "type": "Feature", "properties": { "ADM_UNIT_CD": "ORN02000", "ADMU_NAME": "NW OREGON MARYS PEAK FIELD OFFICE", "BLM_ORG_TYPE": "Field", "ADMIN_ST": "OR", "Label": "Nw Oregon Marys Peak", "Label_Full_Name": "Nw Oregon Marys Peak Field Office", "City_Label": "", "OBJECTID": 45 }, "geometry": { "type": "Point", "coordinates": [ -123.023539193439333, 44.874317574508069 ] } },
{ "type": "Feature", "properties": { "ADM_UNIT_CD": "MTB07000", "ADMU_NAME": "BUTTE FIELD OFFICE", "BLM_ORG_TYPE": "Field", "ADMIN_ST": "MT", "Label": "Butte", "Label_Full_Name": "Butte Field Office", "City_Label": "", "OBJECTID": 46 }, "geometry": { "type": "Point", "coordinates": [ -112.511325452961913, 45.92796050549498 ] } },
{ "type": "Feature", "properties": { "ADM_UNIT_CD": "WYP00000", "ADMU_NAME": "WYOMING HIGH PLAINS DISTRICT OFFICE", "BLM_ORG_TYPE": "District", "ADMIN_ST": "WY", "Label": "Wyoming High Plains", "Label_Full_Name": "Wyoming High Plains District Office", "City_Label": "", "OBJECTID": 47 }, "geometry": { "type": "Point", "coordinates": [ -106.384265404990387, 42.819324684258717 ] } },
{ "type": "Feature", "properties": { "ADM_UNIT_CD": "CAC06800", "ADMU_NAME": "Piedras Blancas Light Station ONA", "BLM_ORG_TYPE": "Other", "ADMIN_ST": "CA", "Label": "Piedras Blancas Light Station Ona", "Label_Full_Name": "Piedras Blancas Light Station Ona", "City_Label": "", "OBJECTID": 48 }, "geometry": { "type": "Point", "coordinates": [ -121.284342441636554, 35.665556016537664 ] } },
{ "type": "Feature", "properties": { "ADM_UNIT_CD": "UTP01000", "ADMU_NAME": "ESCALANTE INTERAGENCY OFFICE/VISITOR CEN", "BLM_ORG_TYPE": "Other", "ADMIN_ST": "UT", "Label": "Grand Staircase Escalante Nat'l Mon", "Label_Full_Name": "Grand Staircase Escalante Nat'l Mon", "City_Label": "", "OBJECTID": 49 }, "geometry": { "type": "Point", "coordinates": [ -111.615729361122575, 37.77277560986056 ] } },
{ "type": "Feature", "properties": { "ADM_UNIT_CD": "CAN06000", "ADMU_NAME": "Redding Field Office", "BLM_ORG_TYPE": "Field", "ADMIN_ST": "CA", "Label": "Redding", "Label_Full_Name": "Redding Field Office", "City_Label": "", "OBJECTID": 50 }, "geometry": { "type": "Point", "coordinates": [ -122.303520277355304, 40.509377777765131 ] } },
{ "type": "Feature", "properties": { "ADM_UNIT_CD": "NV000000", "ADMU_NAME": "Reno", "BLM_ORG_TYPE": "State", "ADMIN_ST": "NV", "Label": "Nevada", "Label_Full_Name": "Nevada State Ofc, Bur Of Land Mgmt", "City_Label": "", "OBJECTID": 51 }, "geometry": { "type": "Point", "coordinates": [ -119.747460719659287, 39.507786401876679 ] } },
{ "type": "Feature", "properties": { "ADM_UNIT_CD": "UTC00000", "ADMU_NAME": "COLOR COUNTRY DISTRICT OFFICE", "BLM_ORG_TYPE": "District", "ADMIN_ST": "UT", "Label": "Color Country", "Label_Full_Name": "Color Country District Office", "City_Label": "", "OBJECTID": 52 }, "geometry": { "type": "Point", "coordinates": [ -113.059023578110754, 37.714852617086734 ] } },
{ "type": "Feature", "properties": { "ADM_UNIT_CD": "AKA00000", "ADMU_NAME": "Anchorage District Office", "BLM_ORG_TYPE": "District", "ADMIN_ST": "AK", "Label": "Anchorage", "Label_Full_Name": "Anchorage District Office", "City_Label": "", "OBJECTID": 53 }, "geometry": { "type": "Point", "coordinates": [ -149.795784303098799, 61.155954770240925 ] } },
{ "type": "Feature", "properties": { "ADM_UNIT_CD": "CAD08000", "ADMU_NAME": "Barstow Field Office", "BLM_ORG_TYPE": "Field", "ADMIN_ST": "CA", "Label": "Barstow", "Label_Full_Name": "Barstow Field Office", "City_Label": "", "OBJECTID": 54 }, "geometry": { "type": "Point", "coordinates": [ -117.020630662884159, 34.872594403503378 ] } },
{ "type": "Feature", "properties": { "ADM_UNIT_CD": "IDC00000", "ADMU_NAME": "Coeur d'Alene District", "BLM_ORG_TYPE": "District", "ADMIN_ST": "ID", "Label": "Coeur D'alene", "Label_Full_Name": "Coeur D'alene District Office", "City_Label": "", "OBJECTID": 55 }, "geometry": { "type": "Point", "coordinates": [ -116.801296006158665, 47.714478875022031 ] } },
{ "type": "Feature", "properties": { "ADM_UNIT_CD": "MTB01000", "ADMU_NAME": "MISSOULA FIELD OFFICE", "BLM_ORG_TYPE": "Field", "ADMIN_ST": "MT", "Label": "Missoula", "Label_Full_Name": "Missoula Field Office", "City_Label": "", "OBJECTID": 56 }, "geometry": { "type": "Point", "coordinates": [ -114.054355241150446, 46.842973493589199 ] } },
{ "type": "Feature", "properties": { "ADM_UNIT_CD": "ORM07000", "ADMU_NAME": "MEDFORD GRANTS PASS FIELD OFFICE", "BLM_ORG_TYPE": "Field", "ADMIN_ST": "OR", "Label": "Medford Grants Pass", "Label_Full_Name": "Medford Grants Pass Field Office", "City_Label": "", "OBJECTID": 57 }, "geometry": { "type": "Point", "coordinates": [ -123.294066386704387, 42.430798369329381 ] } },
{ "type": "Feature", "properties": { "ADM_UNIT_CD": "ORP00000", "ADMU_NAME": "PRINEVILLE DISTRICT OFFICE", "BLM_ORG_TYPE": "District", "ADMIN_ST": "OR", "Label": "Prineville", "Label_Full_Name": "Prineville District Office", "City_Label": "", "OBJECTID": 58 }, "geometry": { "type": "Point", "coordinates": [ -120.809912836150133, 44.302885458311081 ] } },
{ "type": "Feature", "properties": { "ADM_UNIT_CD": "CAN03800", "ADMU_NAME": "King Range National Conservation Area", "BLM_ORG_TYPE": "Other", "ADMIN_ST": "CA", "Label": "King Range National Conservation Area", "Label_Full_Name": "King Range National Conservation Area", "City_Label": "", "OBJECTID": 59 }, "geometry": { "type": "Point", "coordinates": [ -123.975617212703881, 40.056754765870075 ] } },
{ "type": "Feature", "properties": { "ADM_UNIT_CD": "WYP08000", "ADMU_NAME": "NEWCASTLE FIELD OFFICE", "BLM_ORG_TYPE": "Field", "ADMIN_ST": "WY", "Label": "Newcastle", "Label_Full_Name": "Newcastle Field Office", "City_Label": "", "OBJECTID": 60 }, "geometry": { "type": "Point", "coordinates": [ -104.189711785861178, 43.849307689941668 ] } },
{ "type": "Feature", "properties": { "ADM_UNIT_CD": "NMA01000", "ADMU_NAME": "Grants Field Station", "BLM_ORG_TYPE": "Other", "ADMIN_ST": "NM", "Label": "Rio Puerco", "Label_Full_Name": "Rio Puerco Field Office", "City_Label": "", "OBJECTID": 61 }, "geometry": { "type": "Point", "coordinates": [ -107.838880263952575, 35.162941254513477 ] } },
{ "type": "Feature", "properties": { "ADM_UNIT_CD": "ORN03000", "ADMU_NAME": "NW OREGON SIUSLAW FIELD OFFICE", "BLM_ORG_TYPE": "Field", "ADMIN_ST": "OR", "Label": "Nw Oregon Siuslaw", "Label_Full_Name": "Nw Oregon Siuslaw Field Office", "City_Label": "", "OBJECTID": 62 }, "geometry": { "type": "Point", "coordinates": [ -122.980173994177278, 44.065383850511857 ] } },
{ "type": "Feature", "properties": { "ADM_UNIT_CD": "UTC03000", "ADMU_NAME": "ST GEORGE FIELD OFFICE", "BLM_ORG_TYPE": "Field", "ADMIN_ST": "UT", "Label": "St George", "Label_Full_Name": "St George Field Office", "City_Label": "", "OBJECTID": 63 }, "geometry": { "type": "Point", "coordinates": [ -113.576786757669637, 37.082752038066666 ] } },
{ "type": "Feature", "properties": { "ADM_UNIT_CD": "IDI00000", "ADMU_NAME": "Idaho Falls District", "BLM_ORG_TYPE": "District", "ADMIN_ST": "ID", "Label": "Idaho Falls", "Label_Full_Name": "Idaho Falls District Office", "City_Label": "", "OBJECTID": 64 }, "geometry": { "type": "Point", "coordinates": [ -112.006963534847642, 43.509002733788996 ] } },
{ "type": "Feature", "properties": { "ADM_UNIT_CD": "NMF00000", "ADMU_NAME": "FARMINGTON DISTRICT OFFICE", "BLM_ORG_TYPE": "District", "ADMIN_ST": "NM", "Label": "Farmington", "Label_Full_Name": "Farmington District Office", "City_Label": "", "OBJECTID": 65 }, "geometry": { "type": "Point", "coordinates": [ -108.158298253979439, 36.786143165219613 ] } },
{ "type": "Feature", "properties": { "ADM_UNIT_CD": "NVS03000", "ADMU_NAME": "Pahrump", "BLM_ORG_TYPE": "Field", "ADMIN_ST": "NV", "Label": "Pahrump", "Label_Full_Name": "Pahrump Field Office", "City_Label": "", "OBJECTID": 66 }, "geometry": { "type": "Point", "coordinates": [ -115.234513431453067, 36.245578676486765 ] } },
{ "type": "Feature", "properties": { "ADM_UNIT_CD": "IDT00000", "ADMU_NAME": "Twin Falls District", "BLM_ORG_TYPE": "District", "ADMIN_ST": "ID", "Label": "Twin Falls", "Label_Full_Name": "Twin Falls District Office", "City_Label": "", "OBJECTID": 67 }, "geometry": { "type": "Point", "coordinates": [ -114.43257780936348, 42.547964956856283 ] } },
{ "type": "Feature", "properties": { "ADM_UNIT_CD": "AZC02000", "ADMU_NAME": "Yuma Field Office", "BLM_ORG_TYPE": "Field", "ADMIN_ST": "AZ", "Label": "Yuma", "Label_Full_Name": "Yuma Field Office", "City_Label": "", "OBJECTID": 68 }, "geometry": { "type": "Point", "coordinates": [ -114.507070679757575, 32.673141938130293 ] } },
{ "type": "Feature", "properties": { "ADM_UNIT_CD": "MTL02000", "ADMU_NAME": "GLASGOW FIELD OFFICE", "BLM_ORG_TYPE": "Field", "ADMIN_ST": "MT", "Label": "Glasgow", "Label_Full_Name": "Glasgow Field Office", "City_Label": "", "OBJECTID": 69 }, "geometry": { "type": "Point", "coordinates": [ -106.620612880284369, 48.195609906173026 ] } },
{ "type": "Feature", "properties": { "ADM_UNIT_CD": "WYD01000", "ADMU_NAME": "PINEDALE FIELD OFFICE", "BLM_ORG_TYPE": "Field", "ADMIN_ST": "WY", "Label": "Pinedale", "Label_Full_Name": "Pinedale Field Office", "City_Label": "", "OBJECTID": 70 }, "geometry": { "type": "Point", "coordinates": [ -109.884550730797372, 42.867354450966545 ] } },
{ "type": "Feature", "properties": { "ADM_UNIT_CD": "ORR05000", "ADMU_NAME": "ROSEBURG SOUTH RIVER FIELD OFFICE", "BLM_ORG_TYPE": "Field", "ADMIN_ST": "OR", "Label": "Roseburg District South River", "Label_Full_Name": "Roseburg District South River Fo", "City_Label": "", "OBJECTID": 71 }, "geometry": { "type": "Point", "coordinates": [ -123.363993218425662, 43.227615587658541 ] } },
{ "type": "Feature", "properties": { "ADM_UNIT_CD": "ESJ00000", "ADMU_NAME": "SOUTHEASTERN STATES DISTRICT OFFICE", "BLM_ORG_TYPE": "District", "ADMIN_ST": "ES", "Label": "Southeastern States", "Label_Full_Name": "Southeastern States District", "City_Label": "", "OBJECTID": 72 }, "geometry": { "type": "Point", "coordinates": [ -90.067151893636137, 32.335679858531016 ] } },
{ "type": "Feature", "properties": { "ADM_UNIT_CD": "WY000000", "ADMU_NAME": "WYOMING STATE OFFICE", "BLM_ORG_TYPE": "State", "ADMIN_ST": "WY", "Label": "Wyoming", "Label_Full_Name": "Wyoming", "City_Label": "", "OBJECTID": 73 }, "geometry": { "type": "Point", "coordinates": [ -104.826640090102785, 41.168789503147742 ] } },
{ "type": "Feature", "properties": { "ADM_UNIT_CD": "ORC04000", "ADMU_NAME": "COOS BAY MYRTLE WOOD FIELD OFFICE", "BLM_ORG_TYPE": "Field", "ADMIN_ST": "OR", "Label": "Coos Bay Myrtlewood", "Label_Full_Name": "Coos Bay Myrtlewood Field Office", "City_Label": "", "OBJECTID": 74 }, "geometry": { "type": "Point", "coordinates": [ -124.251102454160389, 43.415358054851517 ] } },
{ "type": "Feature", "properties": { "ADM_UNIT_CD": "ORB05000", "ADMU_NAME": "BURNS THREE RIVERS FIELD OFFICE", "BLM_ORG_TYPE": "Field", "ADMIN_ST": "OR", "Label": "Burns Three Rivers", "Label_Full_Name": "Burns Three Rivers Field Office", "City_Label": "", "OBJECTID": 75 }, "geometry": { "type": "Point", "coordinates": [ -119.096611620515006, 43.523300473214562 ] } },
{ "type": "Feature", "properties": { "ADM_UNIT_CD": "CAN05000", "ADMU_NAME": "Eagle Lake Field Office", "BLM_ORG_TYPE": "Field", "ADMIN_ST": "CA", "Label": "Eagle Lake", "Label_Full_Name": "Eagle Lake Field Office", "City_Label": "", "OBJECTID": 76 }, "geometry": { "type": "Point", "coordinates": [ -120.637257135310733, 40.406653863471305 ] } },
{ "type": "Feature", "properties": { "ADM_UNIT_CD": "UTP01000", "ADMU_NAME": "GSENM FIELD OFFICE", "BLM_ORG_TYPE": "Field", "ADMIN_ST": "UT", "Label": "Grand Staircase Escalante Nat'l Mon", "Label_Full_Name": "Grand Staircase Escalante Nat'l Mon", "City_Label": "", "OBJECTID": 77 }, "geometry": { "type": "Point", "coordinates": [ -112.524210264864834, 37.037018035937329 ] } },
{ "type": "Feature", "properties": { "ADM_UNIT_CD": "NVE00000", "ADMU_NAME": "Elko", "BLM_ORG_TYPE": "District", "ADMIN_ST": "NV", "Label": "Elko", "Label_Full_Name": "Elko District Office", "City_Label": "", "OBJECTID": 78 }, "geometry": { "type": "Point", "coordinates": [ -115.734375428696069, 40.862147317115245 ] } },
{ "type": "Feature", "properties": { "ADM_UNIT_CD": "WYR01000", "ADMU_NAME": "WORLAND FIELD OFFICE", "BLM_ORG_TYPE": "Field", "ADMIN_ST": "WY", "Label": "Worland", "Label_Full_Name": "Worland Field Office", "City_Label": "", "OBJECTID": 79 }, "geometry": { "type": "Point", "coordinates": [ -107.938610318598791, 44.016388344255745 ] } },
{ "type": "Feature", "properties": { "ADM_UNIT_CD": "ORM00000", "ADMU_NAME": "MEDFORD DISTRICT OFFICE", "BLM_ORG_TYPE": "District", "ADMIN_ST": "OR", "Label": "Medford", "Label_Full_Name": "Medford District Office", "City_Label": "", "OBJECTID": 80 }, "geometry": { "type": "Point", "coordinates": [ -122.874589510128345, 42.361646721974004 ] } },
{ "type": "Feature", "properties": { "ADM_UNIT_CD": "ES000000", "ADMU_NAME": "EASTERN STATES OFFICE", "BLM_ORG_TYPE": "State", "ADMIN_ST": "ES", "Label": "Eastern States", "Label_Full_Name": "Eastern States", "City_Label": "", "OBJECTID": 81 }, "geometry": { "type": "Point", "coordinates": [ -77.007921251810018, 38.876753485882318 ] } },
{ "type": "Feature", "properties": { "ADM_UNIT_CD": "ID000000", "ADMU_NAME": "Idaho State Office", "BLM_ORG_TYPE": "State", "ADMIN_ST": "ID", "Label": "", "Label_Full_Name": "", "City_Label": "", "OBJECTID": 82 }, "geometry": { "type": "Point", "coordinates": [ -116.286944398978463, 43.59249999981612 ] } },
{ "type": "Feature", "properties": { "ADM_UNIT_CD": "AZP01000", "ADMU_NAME": "Hassayampa Field Office", "BLM_ORG_TYPE": "Field", "ADMIN_ST": "AZ", "Label": "Hassayampa", "Label_Full_Name": "Hassayampa Field Office", "City_Label": "", "OBJECTID": 83 }, "geometry": { "type": "Point", "coordinates": [ -112.038333332491476, 33.641944442950873 ] } },
{ "type": "Feature", "properties": { "ADM_UNIT_CD": "MTC03000", "ADMU_NAME": "NORTH DAKOTA FIELD OFFICE", "BLM_ORG_TYPE": "Field", "ADMIN_ST": "MT", "Label": "North Dakota", "Label_Full_Name": "North Dakota Field Office", "City_Label": "", "OBJECTID": 84 }, "geometry": { "type": "Point", "coordinates": [ -102.819942368902858, 46.88069038346989 ] } },
{ "type": "Feature", "properties": { "ADM_UNIT_CD": "AKF00000", "ADMU_NAME": "Fairbanks District Office", "BLM_ORG_TYPE": "District", "ADMIN_ST": "AK", "Label": "Fairbanks", "Label_Full_Name": "Fairbanks District Office", "City_Label": "", "OBJECTID": 85 }, "geometry": { "type": "Point", "coordinates": [ -147.814689691288692, 64.840386987606649 ] } },
{ "type": "Feature", "properties": { "ADM_UNIT_CD": "NVB00000", "ADMU_NAME": "Battle Mountain", "BLM_ORG_TYPE": "District", "ADMIN_ST": "NV", "Label": "Battle Mountain", "Label_Full_Name": "Battle Mountain District Office", "City_Label": "", "OBJECTID": 86 }, "geometry": { "type": "Point", "coordinates": [ -116.95532214190375, 40.630538596236498 ] } },
{ "type": "Feature", "properties": { "ADM_UNIT_CD": "ORR00000", "ADMU_NAME": "ROSEBURG DISTRICT OFFICE", "BLM_ORG_TYPE": "District", "ADMIN_ST": "OR", "Label": "Roseburg", "Label_Full_Name": "Roseburg District Office", "City_Label": "", "OBJECTID": 87 }, "geometry": { "type": "Point", "coordinates": [ -123.363993218425662, 43.227615587658541 ] } },
{ "type": "Feature", "properties": { "ADM_UNIT_CD": "CAC06900", "ADMU_NAME": "Carrizo Plain National Monument", "BLM_ORG_TYPE": "Other", "ADMIN_ST": "CA", "Label": "Carrizo Plain National Monument", "Label_Full_Name": "Carrizo Plain National Monument", "City_Label": "", "OBJECTID": 88 }, "geometry": { "type": "Point", "coordinates": [ -119.863573798401291, 35.190300968691389 ] } },
{ "type": "Feature", "properties": { "ADM_UNIT_CD": "WYD00000", "ADMU_NAME": "WYOMING HIGH DESERT DISTRICT OFFICE", "BLM_ORG_TYPE": "District", "ADMIN_ST": "WY", "Label": "Wyoming High Desert", "Label_Full_Name": "Wyoming High Desert District Office", "City_Label": "", "OBJECTID": 89 }, "geometry": { "type": "Point", "coordinates": [ -109.230622860832668, 41.627751531091214 ] } },
{ "type": "Feature", "properties": { "ADM_UNIT_CD": "UTP00000", "ADMU_NAME": "PARIA RIVER DISTRICT OFFICE", "BLM_ORG_TYPE": "District", "ADMIN_ST": "UT", "Label": "Paria River", "Label_Full_Name": "Paria River District", "City_Label": "", "OBJECTID": 90 }, "geometry": { "type": "Point", "coordinates": [ -112.524210264864834, 37.037018035937329 ] } },
{ "type": "Feature", "properties": { "ADM_UNIT_CD": "NML00000", "ADMU_NAME": "McGregor Field Station", "BLM_ORG_TYPE": "Other", "ADMIN_ST": "NM", "Label": "Las Cruces", "Label_Full_Name": "Las Cruces District Office", "City_Label": "", "OBJECTID": 91 }, "geometry": { "type": "Point", "coordinates": [ -105.622120834480683, 32.430697307647691 ] } },
{ "type": "Feature", "properties": { "ADM_UNIT_CD": "AKA02000", "ADMU_NAME": "Glennallen Field Office", "BLM_ORG_TYPE": "Field", "ADMIN_ST": "AK", "Label": "Glennallen", "Label_Full_Name": "Glennallen Field Office", "City_Label": "", "OBJECTID": 92 }, "geometry": { "type": "Point", "coordinates": [ -145.546567869128324, 62.109430564917986 ] } },
{ "type": "Feature", "properties": { "ADM_UNIT_CD": "MTL01000", "ADMU_NAME": "MALTA FIELD OFFICE", "BLM_ORG_TYPE": "Field", "ADMIN_ST": "MT", "Label": "Malta", "Label_Full_Name": "Malta Field Office", "City_Label": "", "OBJECTID": 93 }, "geometry": { "type": "Point", "coordinates": [ -107.866163223822028, 48.35879295178902 ] } },
{ "type": "Feature", "properties": { "ADM_UNIT_CD": "NVL00000", "ADMU_NAME": "Ely", "BLM_ORG_TYPE": "District", "ADMIN_ST": "NV", "Label": "Ely", "Label_Full_Name": "Ely District Office", "City_Label": "", "OBJECTID": 94 }, "geometry": { "type": "Point", "coordinates": [ -114.836592327212117, 39.293666723043316 ] } },
{ "type": "Feature", "properties": { "ADM_UNIT_CD": "ORW03000", "ADMU_NAME": "SPOKANE BORDER FIELD OFFICE", "BLM_ORG_TYPE": "Field", "ADMIN_ST": "OR", "Label": "Spokane Border", "Label_Full_Name": "Spokane Border Field Office", "City_Label": "", "OBJECTID": 95 }, "geometry": { "type": "Point", "coordinates": [ -117.325488404849779, 47.667924536110839 ] } },
{ "type": "Feature", "properties": { "ADM_UNIT_CD": "UTG02000", "ADMU_NAME": "PRICE FIELD OFFICE", "BLM_ORG_TYPE": "Field", "ADMIN_ST": "UT", "Label": "Price", "Label_Full_Name": "Price Field Office", "City_Label": "", "OBJECTID": 96 }, "geometry": { "type": "Point", "coordinates": [ -110.819622932962801, 39.598646009877221 ] } },
{ "type": "Feature", "properties": { "ADM_UNIT_CD": "ORN05000", "ADMU_NAME": "NW OREGON UPPER WILLAMETTE FIELD OFFICE", "BLM_ORG_TYPE": "Field", "ADMIN_ST": "OR", "Label": "Nw Oregon Upper Willamette", "Label_Full_Name": "Nw Oregon Upper Willamette Field Off.", "City_Label": "", "OBJECTID": 97 }, "geometry": { "type": "Point", "coordinates": [ -122.980173994177278, 44.065383850511857 ] } },
{ "type": "Feature", "properties": { "ADM_UNIT_CD": "CAD05000", "ADMU_NAME": "Ridgecrest Field Office", "BLM_ORG_TYPE": "Field", "ADMIN_ST": "CA", "Label": "Ridgecrest", "Label_Full_Name": "Ridgecrest Field Office", "City_Label": "", "OBJECTID": 98 }, "geometry": { "type": "Point", "coordinates": [ -117.647599139856553, 35.618044400261255 ] } },
{ "type": "Feature", "properties": { "ADM_UNIT_CD": "ORP06000", "ADMU_NAME": "PRINEVILLE DESCHUTES FIELD OFFICE", "BLM_ORG_TYPE": "Field", "ADMIN_ST": "OR", "Label": "Prineville Deschutes", "Label_Full_Name": "Prineville Deschutes Field Office", "City_Label": "", "OBJECTID": 99 }, "geometry": { "type": "Point", "coordinates": [ -120.809912836150133, 44.302885458311081 ] } },
{ "type": "Feature", "properties": { "ADM_UNIT_CD": "ORW02000", "ADMU_NAME": "SPOKANE WENATCHEE FIELD OFFICE", "BLM_ORG_TYPE": "Field", "ADMIN_ST": "OR", "Label": "Spokane Wenatchee", "Label_Full_Name": "Spokane Wenatchee Field Office", "City_Label": "", "OBJECTID": 100 }, "geometry": { "type": "Point", "coordinates": [ -120.316073948564068, 47.437342007320701 ] } },
{ "type": "Feature", "properties": { "ADM_UNIT_CD": "NVE03000", "ADMU_NAME": "Elko", "BLM_ORG_TYPE": "Field", "ADMIN_ST": "NV", "Label": "Wells", "Label_Full_Name": "Wells Field Office", "City_Label": "", "OBJECTID": 101 }, "geometry": { "type": "Point", "coordinates": [ -115.734375428696069, 40.862147317115245 ] } },
{ "type": "Feature", "properties": { "ADM_UNIT_CD": "NMA02000", "ADMU_NAME": "SOCORRO FIELD OFFICE", "BLM_ORG_TYPE": "Field", "ADMIN_ST": "NM", "Label": "Socorro", "Label_Full_Name": "Socorro Field Office", "City_Label": "", "OBJECTID": 102 }, "geometry": { "type": "Point", "coordinates": [ -106.892906134448538, 34.046879591182865 ] } },
{ "type": "Feature", "properties": { "ADM_UNIT_CD": "IDI03000", "ADMU_NAME": "Challis Field Office", "BLM_ORG_TYPE": "Field", "ADMIN_ST": "ID", "Label": "Challis", "Label_Full_Name": "Challis Field Office", "City_Label": "", "OBJECTID": 103 }, "geometry": { "type": "Point", "coordinates": [ -114.23189262529732, 44.504675449059611 ] } },
{ "type": "Feature", "properties": { "ADM_UNIT_CD": "NVL06000", "ADMU_NAME": "Bristlecone", "BLM_ORG_TYPE": "Field", "ADMIN_ST": "NV", "Label": "Bristlecone", "Label_Full_Name": "Bristlecone Field Office", "City_Label": "", "OBJECTID": 104 }, "geometry": { "type": "Point", "coordinates": [ -114.836592327212117, 39.293666723043316 ] } },
{ "type": "Feature", "properties": { "ADM_UNIT_CD": "UTW02000", "ADMU_NAME": "FILLMORE FIELD OFFICE", "BLM_ORG_TYPE": "Field", "ADMIN_ST": "UT", "Label": "Fillmore", "Label_Full_Name": "Fillmore Field Office", "City_Label": "", "OBJECTID": 105 }, "geometry": { "type": "Point", "coordinates": [ -112.321388834052428, 38.980276654395823 ] } },
{ "type": "Feature", "properties": { "ADM_UNIT_CD": "ORN00000", "ADMU_NAME": "NW OREGON DISTRICT OFFICE", "BLM_ORG_TYPE": "District", "ADMIN_ST": "OR", "Label": "Nw Oregon", "Label_Full_Name": "Nw Oregon District Office", "City_Label": "", "OBJECTID": 106 }, "geometry": { "type": "Point", "coordinates": [ -123.023539193439333, 44.874317574508069 ] } },
{ "type": "Feature", "properties": { "ADM_UNIT_CD": "UTP01000", "ADMU_NAME": "CANNONVILLE VISITOR CENTER", "BLM_ORG_TYPE": "Other", "ADMIN_ST": "UT", "Label": "Grand Staircase Escalante Nat'l Mon", "Label_Full_Name": "Grand Staircase Escalante Nat'l Mon", "City_Label": "", "OBJECTID": 107 }, "geometry": { "type": "Point", "coordinates": [ -112.054407937102468, 37.567157634591624 ] } },
{ "type": "Feature", "properties": { "ADM_UNIT_CD": "NVW00000", "ADMU_NAME": "Winnemucca", "BLM_ORG_TYPE": "District", "ADMIN_ST": "NV", "Label": "Winnemucca", "Label_Full_Name": "Winnemucca District Office", "City_Label": "", "OBJECTID": 108 }, "geometry": { "type": "Point", "coordinates": [ -117.713713757768943, 40.976760979012766 ] } },
{ "type": "Feature", "properties": { "ADM_UNIT_CD": "CAN01000", "ADMU_NAME": "Northern California District Office", "BLM_ORG_TYPE": "District", "ADMIN_ST": "CA", "Label": "Northern California", "Label_Full_Name": "Northern California District Office", "City_Label": "", "OBJECTID": 109 }, "geometry": { "type": "Point", "coordinates": [ -122.303520277355304, 40.509377777765131 ] } },
{ "type": "Feature", "properties": { "ADM_UNIT_CD": "AZG02200", "ADMU_NAME": "San Pedro Project Office", "BLM_ORG_TYPE": "Other", "ADMIN_ST": "AZ", "Label": "San Pedro Riparian Nca", "Label_Full_Name": "San Pedro Riparian Nca", "City_Label": "", "OBJECTID": 110 }, "geometry": { "type": "Point", "coordinates": [ -110.256786000692287, 31.458469000082061 ] } },
{ "type": "Feature", "properties": { "ADM_UNIT_CD": "ORC00000", "ADMU_NAME": "COOS BAY DISTRICT OFFICE", "BLM_ORG_TYPE": "District", "ADMIN_ST": "OR", "Label": "Coos Bay", "Label_Full_Name": "Coos Bay District Office", "City_Label": "", "OBJECTID": 111 }, "geometry": { "type": "Point", "coordinates": [ -124.251102454160389, 43.415358054851517 ] } },
{ "type": "Feature", "properties": { "ADM_UNIT_CD": "MTB05000", "ADMU_NAME": "DILLON FIELD OFFICE", "BLM_ORG_TYPE": "Field", "ADMIN_ST": "MT", "Label": "Dillon", "Label_Full_Name": "Dillon Field Office", "City_Label": "", "OBJECTID": 112 }, "geometry": { "type": "Point", "coordinates": [ -112.628752582809952, 45.229368500284458 ] } },
{ "type": "Feature", "properties": { "ADM_UNIT_CD": "AZP02000", "ADMU_NAME": "Lower Sonoran Field Office", "BLM_ORG_TYPE": "Field", "ADMIN_ST": "AZ", "Label": "Lower Sonoran", "Label_Full_Name": "Lower Sonoran Field Office", "City_Label": "", "OBJECTID": 113 }, "geometry": { "type": "Point", "coordinates": [ -112.038322222128031, 33.641822222809068 ] } },
{ "type": "Feature", "properties": { "ADM_UNIT_CD": "NVW03000", "ADMU_NAME": "Black Rock", "BLM_ORG_TYPE": "Field", "ADMIN_ST": "NV", "Label": "Black Rock", "Label_Full_Name": "Black Rock Field Office", "City_Label": "", "OBJECTID": 114 }, "geometry": { "type": "Point", "coordinates": [ -117.713713757768943, 40.976760979012766 ] } },
{ "type": "Feature", "properties": { "ADM_UNIT_CD": "WYD04000", "ADMU_NAME": "ROCK SPRINGS FIELD OFFICE", "BLM_ORG_TYPE": "Field", "ADMIN_ST": "WY", "Label": "Rock Springs", "Label_Full_Name": "Rock Springs Field Office", "City_Label": "", "OBJECTID": 115 }, "geometry": { "type": "Point", "coordinates": [ -109.230622860832668, 41.627751531091214 ] } },
{ "type": "Feature", "properties": { "ADM_UNIT_CD": "AKA01000", "ADMU_NAME": "Anchorage Field Office", "BLM_ORG_TYPE": "Field", "ADMIN_ST": "AK", "Label": "Anchorage", "Label_Full_Name": "Anchorage Field Office", "City_Label": "", "OBJECTID": 116 }, "geometry": { "type": "Point", "coordinates": [ -149.795784303098799, 61.155954770240925 ] } },
{ "type": "Feature", "properties": { "ADM_UNIT_CD": "NM006000", "ADMU_NAME": "AMARILLO FIELD OFFICE", "BLM_ORG_TYPE": "Field", "ADMIN_ST": "NM", "Label": "Amarillo", "Label_Full_Name": "Amarillo Field Office", "City_Label": "", "OBJECTID": 117 }, "geometry": { "type": "Point", "coordinates": [ -101.834898327481255, 35.205213426143416 ] } },
{ "type": "Feature", "properties": { "ADM_UNIT_CD": "MTL00000", "ADMU_NAME": "NORTH CENTRAL MONTANA DISTRICT OFFICE", "BLM_ORG_TYPE": "District", "ADMIN_ST": "MT", "Label": "North Central Montana", "Label_Full_Name": "North Central Montana District Office", "City_Label": "", "OBJECTID": 118 }, "geometry": { "type": "Point", "coordinates": [ -109.400741271050393, 47.070818790458731 ] } },
{ "type": "Feature", "properties": { "ADM_UNIT_CD": "CA900000", "ADMU_NAME": "California State Office", "BLM_ORG_TYPE": "State", "ADMIN_ST": "CA", "Label": "California", "Label_Full_Name": "California State Office", "City_Label": "", "OBJECTID": 119 }, "geometry": { "type": "Point", "coordinates": [ -121.398833633692661, 38.602449518260876 ] } },
{ "type": "Feature", "properties": { "ADM_UNIT_CD": "MTL03000", "ADMU_NAME": "HAVRE FIELD OFFICE", "BLM_ORG_TYPE": "Field", "ADMIN_ST": "MT", "Label": "Havre", "Label_Full_Name": "Havre Field Office", "City_Label": "", "OBJECTID": 120 }, "geometry": { "type": "Point", "coordinates": [ -109.743675436738386, 48.554725388501417 ] } },
{ "type": "Feature", "properties": { "ADM_UNIT_CD": "AZC01000", "ADMU_NAME": "Kingman Field Office", "BLM_ORG_TYPE": "Field", "ADMIN_ST": "AZ", "Label": "Kingman", "Label_Full_Name": "Kingman Field Office", "City_Label": "", "OBJECTID": 121 }, "geometry": { "type": "Point", "coordinates": [ -114.014557637258903, 35.189954498729939 ] } },
{ "type": "Feature", "properties": { "ADM_UNIT_CD": "AZC00000", "ADMU_NAME": "Colorado River District Office", "BLM_ORG_TYPE": "District", "ADMIN_ST": "AZ", "Label": "Colorado River", "Label_Full_Name": "Colorado River District Office", "City_Label": "", "OBJECTID": 122 }, "geometry": { "type": "Point", "coordinates": [ -114.353064898040188, 34.503492263816014 ] } },
{ "type": "Feature", "properties": { "ADM_UNIT_CD": "MTC01000", "ADMU_NAME": "BILLINGS FIELD OFFICE", "BLM_ORG_TYPE": "Field", "ADMIN_ST": "MT", "Label": "Billings", "Label_Full_Name": "Billings Field Office", "City_Label": "", "OBJECTID": 123 }, "geometry": { "type": "Point", "coordinates": [ -108.542398022989374, 45.754440847043767 ] } },
{ "type": "Feature", "properties": { "ADM_UNIT_CD": "ORB06000", "ADMU_NAME": "BURNS ANDREWS FIELD OFFICE", "BLM_ORG_TYPE": "Field", "ADMIN_ST": "OR", "Label": "Burns Andrews", "Label_Full_Name": "Burns Andrews Field Office", "City_Label": "", "OBJECTID": 124 }, "geometry": { "type": "Point", "coordinates": [ -119.096611620515006, 43.523300473214562 ] } },
{ "type": "Feature", "properties": { "ADM_UNIT_CD": "UTC02100", "ADMU_NAME": "HENRY MOUNTAIN FIELD STATION", "BLM_ORG_TYPE": "Other", "ADMIN_ST": "UT", "Label": "Hanksville", "Label_Full_Name": "Hanksville Field Station", "City_Label": "", "OBJECTID": 125 }, "geometry": { "type": "Point", "coordinates": [ -110.717177346671178, 38.366695461575901 ] } },
{ "type": "Feature", "properties": { "ADM_UNIT_CD": "ORL05000", "ADMU_NAME": "LAKEVIEW LAKEVIEW FIELD OFFICE", "BLM_ORG_TYPE": "Field", "ADMIN_ST": "OR", "Label": "Lakeview District Lakeview", "Label_Full_Name": "Lakeview District Lakeview Field Offc", "City_Label": "", "OBJECTID": 126 }, "geometry": { "type": "Point", "coordinates": [ -120.346538761831113, 42.170922173952782 ] } },
{ "type": "Feature", "properties": { "ADM_UNIT_CD": "AZP00000", "ADMU_NAME": "Phoenix District Office", "BLM_ORG_TYPE": "District", "ADMIN_ST": "AZ", "Label": "Phoenix", "Label_Full_Name": "Phoenix District Office", "City_Label": "", "OBJECTID": 127 }, "geometry": { "type": "Point", "coordinates": [ -112.038322222128031, 33.641822222809068 ] } },
{ "type": "Feature", "properties": { "ADM_UNIT_CD": "AZG01000", "ADMU_NAME": "Safford Field Office", "BLM_ORG_TYPE": "Field", "ADMIN_ST": "AZ", "Label": "Safford", "Label_Full_Name": "Safford Field Office", "City_Label": "", "OBJECTID": 128 }, "geometry": { "type": "Point", "coordinates": [ -109.724190369168056, 32.831926972364066 ] } },
{ "type": "Feature", "properties": { "ADM_UNIT_CD": "NVS02000", "ADMU_NAME": "Sloan Canyon Visitor Center", "BLM_ORG_TYPE": "Field", "ADMIN_ST": "NV", "Label": "Red Rock/sloan Canyon Nca", "Label_Full_Name": "Red Rock/sloan Canyon Nca Field Offic", "City_Label": "", "OBJECTID": 129 }, "geometry": { "type": "Point", "coordinates": [ -115.126132833284473, 35.916167994759654 ] } },
{ "type": "Feature", "properties": { "ADM_UNIT_CD": "AKF03000", "ADMU_NAME": "Central Yukon Field Office", "BLM_ORG_TYPE": "Field", "ADMIN_ST": "AK", "Label": "Central Yukon", "Label_Full_Name": "Central Yukon Field Office", "City_Label": "", "OBJECTID": 130 }, "geometry": { "type": "Point", "coordinates": [ -147.814689691288692, 64.840386987606649 ] } },
{ "type": "Feature", "properties": { "ADM_UNIT_CD": "NMF01000", "ADMU_NAME": "FARMINGTON FIELD OFFICE", "BLM_ORG_TYPE": "Field", "ADMIN_ST": "NM", "Label": "Farmington", "Label_Full_Name": "Farmington Field Office", "City_Label": "", "OBJECTID": 131 }, "geometry": { "type": "Point", "coordinates": [ -108.158298253979439, 36.786143165219613 ] } },
{ "type": "Feature", "properties": { "ADM_UNIT_CD": "UTC02000", "ADMU_NAME": "RICHFIELD FIELD OFFICE", "BLM_ORG_TYPE": "Field", "ADMIN_ST": "UT", "Label": "Richfield", "Label_Full_Name": "Richfield Field Office", "City_Label": "", "OBJECTID": 132 }, "geometry": { "type": "Point", "coordinates": [ -112.08255075807368, 38.780525689929291 ] } },
{ "type": "Feature", "properties": { "ADM_UNIT_CD": "WYP07000", "ADMU_NAME": "BUFFALO FIELD OFFICE", "BLM_ORG_TYPE": "Field", "ADMIN_ST": "WY", "Label": "Buffalo", "Label_Full_Name": "Buffalo Field Office", "City_Label": "", "OBJECTID": 133 }, "geometry": { "type": "Point", "coordinates": [ -106.724326899435241, 44.342172585768672 ] } },
{ "type": "Feature", "properties": { "ADM_UNIT_CD": "AZA01000", "ADMU_NAME": "Arizona Strip Field Office", "BLM_ORG_TYPE": "Field", "ADMIN_ST": "AZ", "Label": "Arizona Strip", "Label_Full_Name": "Arizona Strip Field Office", "City_Label": "", "OBJECTID": 134 }, "geometry": { "type": "Point", "coordinates": [ -113.576785839591409, 37.082711939622676 ] } },
{ "type": "Feature", "properties": { "ADM_UNIT_CD": "UTG01000", "ADMU_NAME": "VERNAL FIELD OFFICE", "BLM_ORG_TYPE": "Field", "ADMIN_ST": "UT", "Label": "Vernal", "Label_Full_Name": "Vernal Field Office", "City_Label": "", "OBJECTID": 135 }, "geometry": { "type": "Point", "coordinates": [ -109.519367021185431, 40.453450229366105 ] } },
{ "type": "Feature", "properties": { "ADM_UNIT_CD": "IDC02000", "ADMU_NAME": "Cottonwood Field Office", "BLM_ORG_TYPE": "Field", "ADMIN_ST": "ID", "Label": "Cottonwood", "Label_Full_Name": "Cottonwood Field Office", "City_Label": "", "OBJECTID": 136 }, "geometry": { "type": "Point", "coordinates": [ -116.348278737209313, 46.063110382199874 ] } },
{ "type": "Feature", "properties": { "ADM_UNIT_CD": "MTL07000", "ADMU_NAME": "UPPER MISSOURI RIVER BREAKS NM", "BLM_ORG_TYPE": "Other", "ADMIN_ST": "MT", "Label": "Upper Missouri River Breaks Nm", "Label_Full_Name": "Upper Missouri River Breaks Nm", "City_Label": "", "OBJECTID": 137 }, "geometry": { "type": "Point", "coordinates": [ -110.67301740608066, 47.810114688702299 ] } },
{ "type": "Feature", "properties": { "ADM_UNIT_CD": "CAD09000", "ADMU_NAME": "Needles Field Office", "BLM_ORG_TYPE": "Field", "ADMIN_ST": "CA", "Label": "Needles", "Label_Full_Name": "Needles Field Office", "City_Label": "", "OBJECTID": 138 }, "geometry": { "type": "Point", "coordinates": [ -114.601199717047734, 34.818385302049975 ] } },
{ "type": "Feature", "properties": { "ADM_UNIT_CD": "NMA00000", "ADMU_NAME": "Cuba Field Station", "BLM_ORG_TYPE": "Other", "ADMIN_ST": "NM", "Label": "Albuquerque", "Label_Full_Name": "Albuquerque District Office", "City_Label": "", "OBJECTID": 139 }, "geometry": { "type": "Point", "coordinates": [ -106.941947203187681, 36.019436543932287 ] } },
{ "type": "Feature", "properties": { "ADM_UNIT_CD": "UTP01000", "ADMU_NAME": "BIG WATER VISITOR CENTER", "BLM_ORG_TYPE": "Other", "ADMIN_ST": "UT", "Label": "Grand Staircase Escalante Nat'l Mon", "Label_Full_Name": "Grand Staircase Escalante Nat'l Mon", "City_Label": "", "OBJECTID": 140 }, "geometry": { "type": "Point", "coordinates": [ -111.664197452034173, 37.076790420830321 ] } },
{ "type": "Feature", "properties": { "ADM_UNIT_CD": "ORM06000", "ADMU_NAME": "MEDFORD ASHLAND FIELD OFFICE", "BLM_ORG_TYPE": "Field", "ADMIN_ST": "OR", "Label": "Medford Ashland", "Label_Full_Name": "Medford Ashland Field Office", "City_Label": "", "OBJECTID": 141 }, "geometry": { "type": "Point", "coordinates": [ -122.874589510128345, 42.361646721974004 ] } },
{ "type": "Feature", "properties": { "ADM_UNIT_CD": "ORP04000", "ADMU_NAME": "PRINEVILLE CENTRAL OREGON FIELD OFFICE", "BLM_ORG_TYPE": "Field", "ADMIN_ST": "OR", "Label": "Prineville Central Oregon", "Label_Full_Name": "Prineville Central Oregon Field Offic", "City_Label": "", "OBJECTID": 142 }, "geometry": { "type": "Point", "coordinates": [ -120.809912836150133, 44.302885458311081 ] } },
{ "type": "Feature", "properties": { "ADM_UNIT_CD": "AZG02000", "ADMU_NAME": "Tucson Field Office", "BLM_ORG_TYPE": "Field", "ADMIN_ST": "AZ", "Label": "Tucson", "Label_Full_Name": "Tucson Field Office", "City_Label": "", "OBJECTID": 143 }, "geometry": { "type": "Point", "coordinates": [ -110.923939261731888, 32.132926161818915 ] } },
{ "type": "Feature", "properties": { "ADM_UNIT_CD": "CAC01000", "ADMU_NAME": "Central California District Office", "BLM_ORG_TYPE": "District", "ADMIN_ST": "CA", "Label": "Central California", "Label_Full_Name": "Central California District Office", "City_Label": "", "OBJECTID": 144 }, "geometry": { "type": "Point", "coordinates": [ -121.060735626490199, 38.620425012583169 ] } },
{ "type": "Feature", "properties": { "ADM_UNIT_CD": "IDB02000", "ADMU_NAME": "Bruneau Field Office", "BLM_ORG_TYPE": "Field", "ADMIN_ST": "ID", "Label": "Bruneau", "Label_Full_Name": "Bruneau Field Office", "City_Label": "", "OBJECTID": 145 }, "geometry": { "type": "Point", "coordinates": [ -116.206546347961336, 43.56674451449301 ] } },
{ "type": "Feature", "properties": { "ADM_UNIT_CD": "NM006000", "ADMU_NAME": "Satanta Maintenance Station", "BLM_ORG_TYPE": "Other", "ADMIN_ST": "NM", "Label": "Amarillo", "Label_Full_Name": "Amarillo Field Office", "City_Label": "", "OBJECTID": 146 }, "geometry": { "type": "Point", "coordinates": [ -100.962630154962199, 37.447931746359188 ] } },
{ "type": "Feature", "properties": { "ADM_UNIT_CD": "UTY02000", "ADMU_NAME": "MONTICELLO FIELD OFFICE", "BLM_ORG_TYPE": "Field", "ADMIN_ST": "UT", "Label": "Monticello", "Label_Full_Name": "Monticello Field Office", "City_Label": "", "OBJECTID": 147 }, "geometry": { "type": "Point", "coordinates": [ -109.343442742692559, 37.877775921746064 ] } },
{ "type": "Feature", "properties": { "ADM_UNIT_CD": "ORV04000", "ADMU_NAME": "VALE MALHEUR FIELD OFFICE", "BLM_ORG_TYPE": "Field", "ADMIN_ST": "OR", "Label": "Vale Malheur", "Label_Full_Name": "Vale Malheur Field Office", "City_Label": "", "OBJECTID": 148 }, "geometry": { "type": "Point", "coordinates": [ -117.240419587767349, 43.98667035936873 ] } },
{ "type": "Feature", "properties": { "ADM_UNIT_CD": "NMP00000", "ADMU_NAME": "PECOS DISTRICT OFFICE", "BLM_ORG_TYPE": "District", "ADMIN_ST": "NM", "Label": "Pecos", "Label_Full_Name": "Pecos District Office", "City_Label": "", "OBJECTID": 149 }, "geometry": { "type": "Point", "coordinates": [ -104.56549013250924, 33.394994300535949 ] } },
{ "type": "Feature", "properties": { "ADM_UNIT_CD": "IDT01000", "ADMU_NAME": "Jarbidge Field Office", "BLM_ORG_TYPE": "Field", "ADMIN_ST": "ID", "Label": "Jarbidge", "Label_Full_Name": "Jarbidge Field Office", "City_Label": "", "OBJECTID": 150 }, "geometry": { "type": "Point", "coordinates": [ -114.432738409271664, 42.54796434932458 ] } },
{ "type": "Feature", "properties": { "ADM_UNIT_CD": "NVS00000", "ADMU_NAME": "Southern Nevada", "BLM_ORG_TYPE": "District", "ADMIN_ST": "NV", "Label": "Southern Nevada", "Label_Full_Name": "Southern Nevada District Office", "City_Label": "", "OBJECTID": 151 }, "geometry": { "type": "Point", "coordinates": [ -115.234513431453067, 36.245578676486765 ] } },
{ "type": "Feature", "properties": { "ADM_UNIT_CD": "ORV05000", "ADMU_NAME": "VALE BAKER FIELD OFFICE", "BLM_ORG_TYPE": "Field", "ADMIN_ST": "OR", "Label": "Vale Baker", "Label_Full_Name": "Vale Baker Field Office", "City_Label": "", "OBJECTID": 152 }, "geometry": { "type": "Point", "coordinates": [ -117.842585842951578, 44.78765448935836 ] } },
{ "type": "Feature", "properties": { "ADM_UNIT_CD": "IDI01000", "ADMU_NAME": "Upper Snake Field Office", "BLM_ORG_TYPE": "Field", "ADMIN_ST": "ID", "Label": "Upper Snake", "Label_Full_Name": "Upper Snake Field Office", "City_Label": "", "OBJECTID": 153 }, "geometry": { "type": "Point", "coordinates": [ -112.006976273856694, 43.508841021663372 ] } },
{ "type": "Feature", "properties": { "ADM_UNIT_CD": "UTY00000", "ADMU_NAME": "CANYON COUNTRY DISTRICT OFFICE", "BLM_ORG_TYPE": "District", "ADMIN_ST": "UT", "Label": "Canyon Country", "Label_Full_Name": "Canyon Country District Office", "City_Label": "", "OBJECTID": 154 }, "geometry": { "type": "Point", "coordinates": [ -109.549300815135211, 38.560678367145108 ] } },
{ "type": "Feature", "properties": { "ADM_UNIT_CD": "NVE02000", "ADMU_NAME": "Elko", "BLM_ORG_TYPE": "Field", "ADMIN_ST": "NV", "Label": "Tuscarora", "Label_Full_Name": "Tuscarora Field Office", "City_Label": "", "OBJECTID": 155 }, "geometry": { "type": "Point", "coordinates": [ -115.734375428696069, 40.862147317115245 ] } },
{ "type": "Feature", "properties": { "ADM_UNIT_CD": "ESJ02400", "ADMU_NAME": "JUPITER INLET LIGHTHOUSE ONA", "BLM_ORG_TYPE": "Field", "ADMIN_ST": "ES", "Label": "Jupiter Inlet Lighthouse Ona", "Label_Full_Name": "Jupiter Inlet Lighthouse Ona", "City_Label": "", "OBJECTID": 156 }, "geometry": { "type": "Point", "coordinates": [ -80.082480129694133, 26.954032559877486 ] } },
{ "type": "Feature", "properties": { "ADM_UNIT_CD": "NM004000", "ADMU_NAME": "OKLAHOMA FIELD OFFICE", "BLM_ORG_TYPE": "Field", "ADMIN_ST": "NM", "Label": "Oklahoma", "Label_Full_Name": "Oklahoma Field Office", "City_Label": "", "OBJECTID": 157 }, "geometry": { "type": "Point", "coordinates": [ -97.439107769934381, 35.18570660690358 ] } },
{ "type": "Feature", "properties": { "ADM_UNIT_CD": "UTW02000", "ADMU_NAME": "LITTLE SAHARA VISITOR CENTER", "BLM_ORG_TYPE": "Other", "ADMIN_ST": "UT", "Label": "Fillmore", "Label_Full_Name": "Fillmore Field Office", "City_Label": "", "OBJECTID": 158 }, "geometry": { "type": "Point", "coordinates": [ -112.307045433910872, 39.726440415834375 ] } },
{ "type": "Feature", "properties": { "ADM_UNIT_CD": "CAD07000", "ADMU_NAME": "El Centro Field Office", "BLM_ORG_TYPE": "Field", "ADMIN_ST": "CA", "Label": "El Centro", "Label_Full_Name": "El Centro Field Office", "City_Label": "", "OBJECTID": 159 }, "geometry": { "type": "Point", "coordinates": [ -115.551875245168219, 32.779537085165352 ] } },
{ "type": "Feature", "properties": { "ADM_UNIT_CD": "CAN02000", "ADMU_NAME": "Surprise Field Station", "BLM_ORG_TYPE": "Other", "ADMIN_ST": "CA", "Label": "Applegate", "Label_Full_Name": "Applegate Field Office", "City_Label": "", "OBJECTID": 160 }, "geometry": { "type": "Point", "coordinates": [ -120.179503789181723, 41.530834979496404 ] } },
{ "type": "Feature", "properties": { "ADM_UNIT_CD": "NMP02000", "ADMU_NAME": "Hobbs Field Station", "BLM_ORG_TYPE": "Other", "ADMIN_ST": "NM", "Label": "Carlsbad", "Label_Full_Name": "Carlsbad Field Office", "City_Label": "", "OBJECTID": 161 }, "geometry": { "type": "Point", "coordinates": [ -103.140683838752949, 32.702198907579728 ] } },
{ "type": "Feature", "properties": { "ADM_UNIT_CD": "IDB03000", "ADMU_NAME": "Owyhee Field Office", "BLM_ORG_TYPE": "Field", "ADMIN_ST": "ID", "Label": "Owyhee", "Label_Full_Name": "Owyhee Field Office", "City_Label": "", "OBJECTID": 162 }, "geometry": { "type": "Point", "coordinates": [ -116.802163316090741, 43.544638159667116 ] } },
{ "type": "Feature", "properties": { "ADM_UNIT_CD": "IDB00000", "ADMU_NAME": "Boise District", "BLM_ORG_TYPE": "District", "ADMIN_ST": "ID", "Label": "Boise", "Label_Full_Name": "Boise District Office", "City_Label": "", "OBJECTID": 163 }, "geometry": { "type": "Point", "coordinates": [ -116.206707236228723, 43.566741407775382 ] } },
{ "type": "Feature", "properties": { "ADM_UNIT_CD": "MTL06000", "ADMU_NAME": "LEWISTOWN FIELD OFFICE", "BLM_ORG_TYPE": "Field", "ADMIN_ST": "MT", "Label": "Lewistown", "Label_Full_Name": "Lewistown Field Office", "City_Label": "", "OBJECTID": 164 }, "geometry": { "type": "Point", "coordinates": [ -109.400741271050393, 47.070818790458731 ] } },
{ "type": "Feature", "properties": { "ADM_UNIT_CD": "WYR05000", "ADMU_NAME": "LANDER FIELD OFFICE", "BLM_ORG_TYPE": "Field", "ADMIN_ST": "WY", "Label": "Lander", "Label_Full_Name": "Lander Field Office", "City_Label": "", "OBJECTID": 165 }, "geometry": { "type": "Point", "coordinates": [ -108.74558994148282, 42.840237070271002 ] } },
{ "type": "Feature", "properties": { "ADM_UNIT_CD": "CAD01000", "ADMU_NAME": "California Desert District Office", "BLM_ORG_TYPE": "District", "ADMIN_ST": "CA", "Label": "California Desert", "Label_Full_Name": "California Desert District Office", "City_Label": "", "OBJECTID": 166 }, "geometry": { "type": "Point", "coordinates": [ -116.505266783736161, 33.839939375673069 ] } },
{ "type": "Feature", "properties": { "ADM_UNIT_CD": "UTY01000", "ADMU_NAME": "MOAB FIELD OFFICE", "BLM_ORG_TYPE": "Field", "ADMIN_ST": "UT", "Label": "Moab", "Label_Full_Name": "Moab Field Office", "City_Label": "", "OBJECTID": 167 }, "geometry": { "type": "Point", "coordinates": [ -109.549300815135211, 38.560678367145108 ] } },
{ "type": "Feature", "properties": { "ADM_UNIT_CD": "UT000000", "ADMU_NAME": "UTAH STATE OFFICE", "BLM_ORG_TYPE": "State", "ADMIN_ST": "UT", "Label": "Utah", "Label_Full_Name": "Utah", "City_Label": "", "OBJECTID": 168 }, "geometry": { "type": "Point", "coordinates": [ -111.903446994142286, 40.765333556152655 ] } },
{ "type": "Feature", "properties": { "ADM_UNIT_CD": "AZG00000", "ADMU_NAME": "Gila District Office", "BLM_ORG_TYPE": "District", "ADMIN_ST": "AZ", "Label": "Gila", "Label_Full_Name": "Gila District Office", "City_Label": "", "OBJECTID": 169 }, "geometry": { "type": "Point", "coordinates": [ -110.923939261731888, 32.132926161818915 ] } },
{ "type": "Feature", "properties": { "ADM_UNIT_CD": "CAC05000", "ADMU_NAME": "Ukiah Field Office", "BLM_ORG_TYPE": "Field", "ADMIN_ST": "CA", "Label": "Ukiah", "Label_Full_Name": "Ukiah Field Office", "City_Label": "", "OBJECTID": 170 }, "geometry": { "type": "Point", "coordinates": [ -123.210513336526745, 39.183573529768751 ] } },
{ "type": "Feature", "properties": { "ADM_UNIT_CD": "IDI02000", "ADMU_NAME": "Pocatello Field Office", "BLM_ORG_TYPE": "Field", "ADMIN_ST": "ID", "Label": "Pocatello", "Label_Full_Name": "Pocatello Field Office", "City_Label": "", "OBJECTID": 171 }, "geometry": { "type": "Point", "coordinates": [ -112.40552632635729, 42.834505380811827 ] } },
{ "type": "Feature", "properties": { "ADM_UNIT_CD": "MTL00000", "ADMU_NAME": "NORTH CENTRAL MONTANA DISTRICT OFFICE", "BLM_ORG_TYPE": "Field", "ADMIN_ST": "MT", "Label": "North Central Montana", "Label_Full_Name": "North Central Montana District Office", "City_Label": "", "OBJECTID": 172 }, "geometry": { "type": "Point", "coordinates": [ -111.242836297165908, 47.520868510036664 ] } },
{ "type": "Feature", "properties": { "ADM_UNIT_CD": "MT001200", "ADMU_NAME": "POMPEYS PILLAR NATIONAL MONUMENT", "BLM_ORG_TYPE": "Other", "ADMIN_ST": "MT", "Label": "Pompeys Pillar National Monument", "Label_Full_Name": "Pompeys Pillar National Monument", "City_Label": "", "OBJECTID": 173 }, "geometry": { "type": "Point", "coordinates": [ -108.002349803476378, 45.994766558831891 ] } },
{ "type": "Feature", "properties": { "ADM_UNIT_CD": "CAN03900", "ADMU_NAME": "Headwaters Forest Preserve", "BLM_ORG_TYPE": "Other", "ADMIN_ST": "CA", "Label": "Headwaters Forest Reserve", "Label_Full_Name": "Headwaters Forest Reserve", "City_Label": "", "OBJECTID": 174 }, "geometry": { "type": "Point", "coordinates": [ -124.087902829633407, 40.903173474810764 ] } },
{ "type": "Feature", "properties": { "ADM_UNIT_CD": "WYR02000", "ADMU_NAME": "CODY FIELD OFFICE", "BLM_ORG_TYPE": "Field", "ADMIN_ST": "WY", "Label": "Cody", "Label_Full_Name": "Cody Field Office", "City_Label": "", "OBJECTID": 175 }, "geometry": { "type": "Point", "coordinates": [ -109.042039040960674, 44.527665192896336 ] } },
{ "type": "Feature", "properties": { "ADM_UNIT_CD": "AZC03000", "ADMU_NAME": "Lake Havasu Field Office", "BLM_ORG_TYPE": "Field", "ADMIN_ST": "AZ", "Label": "Lake Havasu", "Label_Full_Name": "Lake Havasu Field Office", "City_Label": "", "OBJECTID": 176 }, "geometry": { "type": "Point", "coordinates": [ -114.35306482348004, 34.503492857531924 ] } },
{ "type": "Feature", "properties": { "ADM_UNIT_CD": "MTB00000", "ADMU_NAME": "WESTERN MONTANA DISTRICT OFFICE", "BLM_ORG_TYPE": "District", "ADMIN_ST": "MT", "Label": "Western Montana", "Label_Full_Name": "Western Montana District Office", "City_Label": "", "OBJECTID": 177 }, "geometry": { "type": "Point", "coordinates": [ -112.511325452961913, 45.92796050549498 ] } },
{ "type": "Feature", "properties": { "ADM_UNIT_CD": "ORN01000", "ADMU_NAME": "NW OREGON CASCADES FIELD OFFICE", "BLM_ORG_TYPE": "Field", "ADMIN_ST": "OR", "Label": "Nw Oregon Cascades", "Label_Full_Name": "Nw Oregon Cascades Field Office", "City_Label": "", "OBJECTID": 178 }, "geometry": { "type": "Point", "coordinates": [ -123.023539193439333, 44.874317574508069 ] } },
{ "type": "Feature", "properties": { "ADM_UNIT_CD": "NVB02000", "ADMU_NAME": "Tonopah", "BLM_ORG_TYPE": "Field", "ADMIN_ST": "NV", "Label": "Tonopah", "Label_Full_Name": "Tonopah Field Office", "City_Label": "", "OBJECTID": 179 }, "geometry": { "type": "Point", "coordinates": [ -117.217056743745488, 38.052977801262344 ] } },
{ "type": "Feature", "properties": { "ADM_UNIT_CD": "WYR00000", "ADMU_NAME": "WIND RIVER/BIGHORN BASIN DISTRICT OFF", "BLM_ORG_TYPE": "District", "ADMIN_ST": "WY", "Label": "Wind River/bighorn Basin", "Label_Full_Name": "Wind River/bighorn Basin District Off", "City_Label": "", "OBJECTID": 180 }, "geometry": { "type": "Point", "coordinates": [ -107.938610318598791, 44.016388344255745 ] } },
{ "type": "Feature", "properties": { "ADM_UNIT_CD": "AKR00000", "ADMU_NAME": "Arctic District Office", "BLM_ORG_TYPE": "District", "ADMIN_ST": "AK", "Label": "Arctic", "Label_Full_Name": "Arctic District Office", "City_Label": "", "OBJECTID": 181 }, "geometry": { "type": "Point", "coordinates": [ -147.814689691288692, 64.840386987606649 ] } },
{ "type": "Feature", "properties": { "ADM_UNIT_CD": "ORL04000", "ADMU_NAME": "LAKEVIEW KLAMATH FALLS FIELD OFFICE", "BLM_ORG_TYPE": "Field", "ADMIN_ST": "OR", "Label": "Lakeview Klamath Falls", "Label_Full_Name": "Lakeview Klamath Falls Field Office", "City_Label": "", "OBJECTID": 182 }, "geometry": { "type": "Point", "coordinates": [ -121.754836312267571, 42.181371318936989 ] } },
{ "type": "Feature", "properties": { "ADM_UNIT_CD": "NVL05000", "ADMU_NAME": "Basin and Range", "BLM_ORG_TYPE": "Other", "ADMIN_ST": "NV", "Label": "Basin & Range National Monument", "Label_Full_Name": "Basin & Range National Monument", "City_Label": "", "OBJECTID": 183 }, "geometry": { "type": "Point", "coordinates": [ -114.527824772176928, 37.611093374529041 ] } },
{ "type": "Feature", "properties": { "ADM_UNIT_CD": "UTW00000", "ADMU_NAME": "WEST DESERT DISTRICT OFFICE", "BLM_ORG_TYPE": "District", "ADMIN_ST": "UT", "Label": "West Desert", "Label_Full_Name": "West Desert District Office", "City_Label": "", "OBJECTID": 184 }, "geometry": { "type": "Point", "coordinates": [ -112.037253461400212, 40.779095086156985 ] } },
{ "type": "Feature", "properties": { "ADM_UNIT_CD": "NMP01000", "ADMU_NAME": "ROSWELL FIELD OFFICE", "BLM_ORG_TYPE": "Field", "ADMIN_ST": "NM", "Label": "Roswell", "Label_Full_Name": "Roswell Field Office", "City_Label": "", "OBJECTID": 185 }, "geometry": { "type": "Point", "coordinates": [ -104.56549013250924, 33.394994300535949 ] } },
{ "type": "Feature", "properties": { "ADM_UNIT_CD": "ESM03400", "ADMU_NAME": "LOWER POTOMAC FIELD STATION", "BLM_ORG_TYPE": "Field", "ADMIN_ST": "ES", "Label": "Lower Potomac", "Label_Full_Name": "Lower Potomac Field Station", "City_Label": "", "OBJECTID": 186 }, "geometry": { "type": "Point", "coordinates": [ -77.197947897182317, 38.671616781927924 ] } },
{ "type": "Feature", "properties": { "ADM_UNIT_CD": "NVC00000", "ADMU_NAME": "Carson City", "BLM_ORG_TYPE": "District", "ADMIN_ST": "NV", "Label": "Carson City", "Label_Full_Name": "Carson City District Office", "City_Label": "", "OBJECTID": 187 }, "geometry": { "type": "Point", "coordinates": [ -119.701419890120135, 39.183360443419922 ] } },
{ "type": "Feature", "properties": { "ADM_UNIT_CD": "WYD03000", "ADMU_NAME": "RAWLINS FIELD OFFICE", "BLM_ORG_TYPE": "Field", "ADMIN_ST": "WY", "Label": "Rawlins", "Label_Full_Name": "Rawlins Field Office", "City_Label": "", "OBJECTID": 188 }, "geometry": { "type": "Point", "coordinates": [ -107.241291147923135, 41.799940510688977 ] } },
{ "type": "Feature", "properties": { "ADM_UNIT_CD": "IDB01000", "ADMU_NAME": "Four Rivers Field Office", "BLM_ORG_TYPE": "Field", "ADMIN_ST": "ID", "Label": "Four Rivers", "Label_Full_Name": "Four Rivers Field Office", "City_Label": "", "OBJECTID": 189 }, "geometry": { "type": "Point", "coordinates": [ -116.206392271618739, 43.566742399738011 ] } },
{ "type": "Feature", "properties": { "ADM_UNIT_CD": "NVS01000", "ADMU_NAME": "Las Vegas", "BLM_ORG_TYPE": "Field", "ADMIN_ST": "NV", "Label": "Las Vegas", "Label_Full_Name": "Las Vegas Field Office", "City_Label": "", "OBJECTID": 190 }, "geometry": { "type": "Point", "coordinates": [ -115.234513431453067, 36.245578676486765 ] } },
{ "type": "Feature", "properties": { "ADM_UNIT_CD": "IDC01000", "ADMU_NAME": "Coeur d'Alene Field Office", "BLM_ORG_TYPE": "Field", "ADMIN_ST": "ID", "Label": "Coeur D'alene", "Label_Full_Name": "Coeur D'alene Field Office", "City_Label": "", "OBJECTID": 191 }, "geometry": { "type": "Point", "coordinates": [ -116.801293186346982, 47.714605291347695 ] } },
{ "type": "Feature", "properties": { "ADM_UNIT_CD": "OR000000", "ADMU_NAME": "OREGON STATE OFFICE", "BLM_ORG_TYPE": "State", "ADMIN_ST": "OR", "Label": "Oregon", "Label_Full_Name": "Oregon State Office", "City_Label": "", "OBJECTID": 192 }, "geometry": { "type": "Point", "coordinates": [ -122.677162854262534, 45.514624616560454 ] } },
{ "type": "Feature", "properties": { "ADM_UNIT_CD": "NVC02000", "ADMU_NAME": "Carson City", "BLM_ORG_TYPE": "Field", "ADMIN_ST": "NV", "Label": "Sierra Front", "Label_Full_Name": "Sierra Front Field Office", "City_Label": "", "OBJECTID": 193 }, "geometry": { "type": "Point", "coordinates": [ -119.701419890120135, 39.183360443419922 ] } },
{ "type": "Feature", "properties": { "ADM_UNIT_CD": "NVC01000", "ADMU_NAME": "Carson City", "BLM_ORG_TYPE": "Field", "ADMIN_ST": "NV", "Label": "Stillwater", "Label_Full_Name": "Stillwater Field Office", "City_Label": "", "OBJECTID": 194 }, "geometry": { "type": "Point", "coordinates": [ -119.701419890120135, 39.183360443419922 ] } },
{ "type": "Feature", "properties": { "ADM_UNIT_CD": "MTC02000", "ADMU_NAME": "MILES CITY FIELD OFFICE", "BLM_ORG_TYPE": "Field", "ADMIN_ST": "MT", "Label": "Miles City", "Label_Full_Name": "Miles City Field Office", "City_Label": "", "OBJECTID": 195 }, "geometry": { "type": "Point", "coordinates": [ -105.864374127303236, 46.397868237732183 ] } },
{ "type": "Feature", "properties": { "ADM_UNIT_CD": "ORC03000", "ADMU_NAME": "COOS BAY UMPQUA FIELD OFFICE", "BLM_ORG_TYPE": "Field", "ADMIN_ST": "OR", "Label": "Coos Bay Umpqua", "Label_Full_Name": "Coos Bay Umpqua Field Office", "City_Label": "", "OBJECTID": 196 }, "geometry": { "type": "Point", "coordinates": [ -124.251102454160389, 43.415358054851517 ] } },
{ "type": "Feature", "properties": { "ADM_UNIT_CD": "UTG00000", "ADMU_NAME": "GREEN RIVER DISTRICT OFFICE", "BLM_ORG_TYPE": "District", "ADMIN_ST": "UT", "Label": "Green River", "Label_Full_Name": "Green River District Office", "City_Label": "", "OBJECTID": 197 }, "geometry": { "type": "Point", "coordinates": [ -109.519367021185431, 40.453450229366105 ] } },
{ "type": "Feature", "properties": { "ADM_UNIT_CD": "ORM05000", "ADMU_NAME": "MEDFORD BUTTE FALLS FIELD OFFICE", "BLM_ORG_TYPE": "Field", "ADMIN_ST": "OR", "Label": "Medford Butte Falls", "Label_Full_Name": "Medford Butte Falls Field Office", "City_Label": "", "OBJECTID": 198 }, "geometry": { "type": "Point", "coordinates": [ -122.874589510128345, 42.361646721974004 ] } },
{ "type": "Feature", "properties": { "ADM_UNIT_CD": "CAD06430", "ADMU_NAME": "Santa Rosa and San Jacinto Mountains NM", "BLM_ORG_TYPE": "Other", "ADMIN_ST": "CA", "Label": "Santa Rosa & San Jacinto Mt Nm", "Label_Full_Name": "Santa Rosa & San Jacinto Mt Nm", "City_Label": "", "OBJECTID": 199 }, "geometry": { "type": "Point", "coordinates": [ -116.408719351445441, 33.671642370605362 ] } },
{ "type": "Feature", "properties": { "ADM_UNIT_CD": "COG02000", "ADMU_NAME": "Colorado River Valley Field Office", "BLM_ORG_TYPE": "Field", "ADMIN_ST": "CO", "Label": "Colorado River Valley", "Label_Full_Name": "Colorado River Valley Field Office", "City_Label": "", "OBJECTID": 200 }, "geometry": { "type": "Point", "coordinates": [ -107.637050928048367, 39.543405399206648 ] } },
{ "type": "Feature", "properties": { "ADM_UNIT_CD": "COS07000", "ADMU_NAME": "Canyons of the Ancients Visitor Center", "BLM_ORG_TYPE": "Other", "ADMIN_ST": "CO", "Label": "Canyon Ancnts Natl Monument", "Label_Full_Name": "Canyon Ancnts Natl Monument", "City_Label": "", "OBJECTID": 201 }, "geometry": { "type": "Point", "coordinates": [ -108.54604455242557, 37.476398251213759 ] } },
{ "type": "Feature", "properties": { "ADM_UNIT_CD": "COS01000", "ADMU_NAME": "Minerals Branch, Tres Rios Field Office", "BLM_ORG_TYPE": "Other", "ADMIN_ST": "CO", "Label": "Tres Rios", "Label_Full_Name": "Tres Rios Field Office", "City_Label": "", "OBJECTID": 202 }, "geometry": { "type": "Point", "coordinates": [ -107.893225566440861, 37.273169674124667 ] } },
{ "type": "Feature", "properties": { "ADM_UNIT_CD": "CON05000", "ADMU_NAME": "White River Field Office", "BLM_ORG_TYPE": "Field", "ADMIN_ST": "CO", "Label": "White River", "Label_Full_Name": "White River Field Office", "City_Label": "", "OBJECTID": 203 }, "geometry": { "type": "Point", "coordinates": [ -107.90540809252262, 40.037223936830131 ] } },
{ "type": "Feature", "properties": { "ADM_UNIT_CD": "COG01000", "ADMU_NAME": "Grand Junction Field Office", "BLM_ORG_TYPE": "Field", "ADMIN_ST": "CO", "Label": "Grand Junction", "Label_Full_Name": "Grand Junction Field Office", "City_Label": "", "OBJECTID": 204 }, "geometry": { "type": "Point", "coordinates": [ -108.531726158686567, 39.118123374073065 ] } },
{ "type": "Feature", "properties": { "ADM_UNIT_CD": "COF02000", "ADMU_NAME": "Arkansas Headwaters Recreation Area", "BLM_ORG_TYPE": "Other", "ADMIN_ST": "CO", "Label": "Royal Gorge", "Label_Full_Name": "Royal Gorge Field Office", "City_Label": "", "OBJECTID": 205 }, "geometry": { "type": "Point", "coordinates": [ -105.196620143070206, 38.445400528178752 ] } },
{ "type": "Feature", "properties": { "ADM_UNIT_CD": "COS01000", "ADMU_NAME": "Tres Rios Field Office", "BLM_ORG_TYPE": "Field", "ADMIN_ST": "CO", "Label": "Tres Rios", "Label_Full_Name": "Tres Rios Field Office", "City_Label": "", "OBJECTID": 206 }, "geometry": { "type": "Point", "coordinates": [ -108.518300460371321, 37.461867716834639 ] } },
{ "type": "Feature", "properties": { "ADM_UNIT_CD": "CON01000", "ADMU_NAME": "Little Snake Field Office", "BLM_ORG_TYPE": "Field", "ADMIN_ST": "CO", "Label": "Little Snake", "Label_Full_Name": "Little Snake Field Office", "City_Label": "", "OBJECTID": 207 }, "geometry": { "type": "Point", "coordinates": [ -107.531624508861896, 40.514073176427303 ] } },
{ "type": "Feature", "properties": { "ADM_UNIT_CD": "COG00000", "ADMU_NAME": "Upper Colorado River District Office", "BLM_ORG_TYPE": "District", "ADMIN_ST": "CO", "Label": "Upper Colorado River", "Label_Full_Name": "Upper Colorado River District Office", "City_Label": "", "OBJECTID": 208 }, "geometry": { "type": "Point", "coordinates": [ -108.531726158686567, 39.118123374073065 ] } },
{ "type": "Feature", "properties": { "ADM_UNIT_CD": "CO000000", "ADMU_NAME": "Colorado State Office", "BLM_ORG_TYPE": "State", "ADMIN_ST": "CO", "Label": "Colorado", "Label_Full_Name": "Colorado State Office", "City_Label": "", "OBJECTID": 209 }, "geometry": { "type": "Point", "coordinates": [ -105.116240777909297, 39.717524932185896 ] } },
{ "type": "Feature", "properties": { "ADM_UNIT_CD": "CON00000", "ADMU_NAME": "Northwest District Office", "BLM_ORG_TYPE": "District", "ADMIN_ST": "CO", "Label": "Northwest", "Label_Full_Name": "Northwest District Office", "City_Label": "", "OBJECTID": 210 }, "geometry": { "type": "Point", "coordinates": [ -107.531624508861896, 40.514073176427303 ] } },
{ "type": "Feature", "properties": { "ADM_UNIT_CD": "CON02000", "ADMU_NAME": "Kremmling Field Office", "BLM_ORG_TYPE": "Field", "ADMIN_ST": "CO", "Label": "Kremmling", "Label_Full_Name": "Kremmling Field Office", "City_Label": "", "OBJECTID": 211 }, "geometry": { "type": "Point", "coordinates": [ -106.369002618681435, 40.057524131446421 ] } },
{ "type": "Feature", "properties": { "ADM_UNIT_CD": "COS05000", "ADMU_NAME": "Uncompahgre Field Office", "BLM_ORG_TYPE": "Field", "ADMIN_ST": "CO", "Label": "Uncompahgre", "Label_Full_Name": "Uncompahgre Field Office", "City_Label": "", "OBJECTID": 212 }, "geometry": { "type": "Point", "coordinates": [ -107.867173356901134, 38.459034286312686 ] } },
{ "type": "Feature", "properties": { "ADM_UNIT_CD": "COS00000", "ADMU_NAME": "Southwest District Office", "BLM_ORG_TYPE": "District", "ADMIN_ST": "CO", "Label": "Southwest", "Label_Full_Name": "Southwest District Office", "City_Label": "", "OBJECTID": 213 }, "geometry": { "type": "Point", "coordinates": [ -107.867173356901134, 38.459034286312686 ] } },
{ "type": "Feature", "properties": { "ADM_UNIT_CD": "COF02000", "ADMU_NAME": "Royal Gorge Field Office", "BLM_ORG_TYPE": "Field", "ADMIN_ST": "CO", "Label": "Royal Gorge", "Label_Full_Name": "Royal Gorge Field Office", "City_Label": "", "OBJECTID": 214 }, "geometry": { "type": "Point", "coordinates": [ -105.196620143070206, 38.445400528178752 ] } },
{ "type": "Feature", "properties": { "ADM_UNIT_CD": "COS06000", "ADMU_NAME": "Gunnison Field Office", "BLM_ORG_TYPE": "Field", "ADMIN_ST": "CO", "Label": "Gunnison", "Label_Full_Name": "Gunnison Field Office", "City_Label": "", "OBJECTID": 215 }, "geometry": { "type": "Point", "coordinates": [ -106.928319546528556, 38.555454762376954 ] } },
{ "type": "Feature", "properties": { "ADM_UNIT_CD": "COF03000", "ADMU_NAME": "San Luis Valley Field Office", "BLM_ORG_TYPE": "Field", "ADMIN_ST": "CO", "Label": "San Luis Valley", "Label_Full_Name": "San Luis Valley Field Office", "City_Label": "", "OBJECTID": 216 }, "geometry": { "type": "Point", "coordinates": [ -106.125139034626656, 37.573303544013726 ] } },
{ "type": "Feature", "properties": { "ADM_UNIT_CD": "COF02400", "ADMU_NAME": "Browns Canyon National Monument", "BLM_ORG_TYPE": "Other", "ADMIN_ST": "CO", "Label": "Browns Canyon National Monument", "Label_Full_Name": "Browns Canyon National Monument", "City_Label": "", "OBJECTID": 217 }, "geometry": { "type": "Point", "coordinates": [ -105.196620143070206, 38.445400528178752 ] } },
{ "type": "Feature", "properties": { "ADM_UNIT_CD": "COG03000", "ADMU_NAME": "Dominguez-Escalante (NCA)", "BLM_ORG_TYPE": "Other", "ADMIN_ST": "CO", "Label": "Dominguez-Escalante Nca", "Label_Full_Name": "Dominguez-Escalante Nca", "City_Label": "", "OBJECTID": 218 }, "geometry": { "type": "Point", "coordinates": [ -108.531726158686567, 39.118123374073065 ] } },
{ "type": "Feature", "properties": { "ADM_UNIT_CD": "COG01200", "ADMU_NAME": "McInnis Canyons (NCA)", "BLM_ORG_TYPE": "Other", "ADMIN_ST": "CO", "Label": "Mcinnis Canyons Nca", "Label_Full_Name": "Mcinnis Canyons Nca", "City_Label": "", "OBJECTID": 219 }, "geometry": { "type": "Point", "coordinates": [ -108.531726158686567, 39.118123374073065 ] } },
{ "type": "Feature", "properties": { "ADM_UNIT_CD": "COF00000", "ADMU_NAME": "Rocky Mountain District Office", "BLM_ORG_TYPE": "District", "ADMIN_ST": "CO", "Label": "Rocky Mountain", "Label_Full_Name": "Rocky Mountain District Office", "City_Label": "", "OBJECTID": 220 }, "geometry": { "type": "Point", "coordinates": [ -105.196620143070206, 38.445400528178752 ] } }
]
}
